#aV2021  4  8  0  0  0.00000000     288 DD+AD WGS84 FIT  NGA
## 2152 345600.00000000   300.00000000 59312 0.0000000000000
+   32     1  2  3  4  5  6  7  8  9 10 11 12 13 14 15 16 17
+         18 19 20 21 22 23 24 25 26 27 28 29 30 31 32  0  0
+          0  0  0  0  0  0  0  0  0  0  0  0  0  0  0  0  0
+          0  0  0  0  0  0  0  0  0  0  0  0  0  0  0  0  0
+          0  0  0  0  0  0  0  0  0  0  0  0  0  0  0  0  0
++         2  2  2  2  2  2  2  2  2  2  2  2  2  2  2  2  2
++         2  2  2  2  2  2  2  2  2  2  2  2  2  2  2  0  0
++         0  0  0  0  0  0  0  0  0  0  0  0  0  0  0  0  0
++         0  0  0  0  0  0  0  0  0  0  0  0  0  0  0  0  0
++         0  0  0  0  0  0  0  0  0  0  0  0  0  0  0  0  0
%c cc cc ccc ccc cccc cccc cccc cccc ccccc ccccc ccccc ccccc
%c cc cc ccc ccc cccc cccc cccc cccc ccccc ccccc ccccc ccccc
%f  0.0000000  0.000000000  0.00000000000  0.000000000000000
%f  0.0000000  0.000000000  0.00000000000  0.000000000000000
%i    0    0    0    0      0      0      0      0         0
%i    0    0    0    0      0      0      0      0         0
/*      NGA, ST. LOUIS,MO.                                  
/*   EPHEMERIS COMPUTED FROM 2 DAYS OF DATA                 
/*   EPOCHA v5 SMOOTHER                                     
/*   G2139 IERS2010 SATIGS SATAPC                           
*  2021  4  8  3 40  0.00000000
P  1  -4674.033041  17029.371955 -19974.798319    721.863338                    
V  1 -22824.414962   9921.941404  14311.938783     -0.096762                    
P  2  22083.759618 -14728.279867   2054.357277   -593.658549                    
V  2   2931.995279   1389.528299 -31633.948185     -0.034889                    
P  3   6048.944153  18796.587332 -17894.799478   -130.663254                    
V  3 -19519.385267 -11285.397241 -18427.085945     -0.107278                    
P  4  -1213.547578  26434.408262   1915.231399   -190.663988                    
V  4  -3082.091576   2140.460199 -31665.177245     -0.020027                    
P  5  11370.644850 -10726.423915  21343.300710    -38.460984                    
V  5  23192.428502  14689.943475  -4757.185263     -0.010877                    
P  6  24207.278477  -4610.809207  -9928.322419      5.685528                    
V  6 -10515.785931   7264.935176 -28774.930431      0.026330                    
P  7  10623.364676  11941.264677  21608.794715    115.314575                    
V  7 -23831.181077  11841.895430   4765.259618      0.117588                    
P  8  -5837.067050  24826.218703   6817.066670    -16.699242                    
V  8  -2315.403948  -8844.766574  30505.358654     -0.014274                    
P  9   7225.991923  22710.524488  11642.720940   -337.294681                    
V  9  -3289.680757  14761.980654 -26639.201661     -0.028207                    
P 10 -23637.916628 -11071.663582  -5511.800735    -97.503006                    
V 10  -4648.877005  -5824.397024  30724.972660     -0.078024                    
P 11  -4874.531640  23318.422045 -12568.965270     23.484770                    
V 11 -11383.123155  10588.362851  24575.804061      0.105982                    
P 12  -1719.398902 -18168.718085 -19605.735111    -24.858591                    
V 12  19794.960010  14063.977950 -14817.148819     -0.050846                    
P 13  12982.368079 -18838.079343  13248.860948    117.291829                    
V 13  -1153.702192  17176.841908  25425.885449      0.045723                    
P 14  22938.313122  12478.423543  -4930.230147     97.464804                    
V 14   3366.133416   5976.455934  30838.139566     -0.022037                    
P 15   3112.449889 -25425.704191   5916.890596   -157.677417                    
V 15   4438.654561   7862.389904  30015.663815      0.025952                    
P 16 -14936.190630   6224.943056  20907.715457   -306.292669                    
V 16 -20705.865653 -17299.578380  -9081.019700     -0.058957                    
P 17  13268.798638   7866.193659 -21195.175616    422.843453                    
V 17  -3976.362936  27582.672803   7596.661599      0.060999                    
P 18 -13711.076794  -9347.243458  20744.663223    351.586831                    
V 18  23485.885360 -11911.555080  10092.686348      0.001479                    
P 19  15191.252145  -1509.481474 -22008.575104    -15.826544                    
V 19  -4214.643784  26890.522607  -4915.709700      0.049944                    
P 20 -13706.262722 -17968.553839  14117.386267    523.400299                    
V 20  17290.281049   5415.703115  23349.525801     -0.003893                    
P 21 -12209.758229  18412.655347 -13672.362668    109.341658                    
V 21 -17591.886049   7146.673174  24543.956877      0.028784                    
P 22  -3241.563513  15804.565545 -20921.648868   -642.901472                    
V 22 -24194.116427 -12232.724552  -5258.908068      0.086160                    
P 23 -19978.435908 -16761.106974   5141.413038    114.614676                    
V 23   6942.084811   1249.776529  30885.277718     -0.018405                    
P 24   9049.811143 -19074.942492 -16121.336249      0.052437                    
V 24  18773.598717  -8027.403456  20739.137762     -0.004877                    
P 25 -14884.361793 -19256.658456 -11220.102041    114.369677                    
V 25  12649.138520   5811.392103 -27130.054853      0.072999                    
P 26 -21671.622510     44.674566  15476.162713     69.165956                    
V 26 -15711.417971 -12082.650058 -21619.852004      0.052015                    
P 27 -12131.888129  16658.965704  16371.232904   -108.753194                    
V 27   -484.659740 -21293.769502  21450.928587     -0.069120                    
P 28  22337.416176  12145.359058  -6768.946870    590.103964                    
V 28   5664.209815   7894.027458  30564.869082     -0.058189                    
P 29  -5325.207339 -22737.814256  12565.997158   -326.138110                    
V 29   3886.066228 -15625.771005 -26569.212574     -0.067230                    
P 30  21383.832961   2792.307198  15706.379708   -409.790567                    
V 30 -17027.952978  10399.308994  21174.911543     -0.053044                    
P 31 -25113.390202   6085.309030  -7200.964507   -110.308254                    
V 31   7078.408401  -5943.257188 -29596.191659     -0.022279                    
P 32 -14748.096318  -5343.152737 -21346.012813     22.049271                    
V 32   1954.689235 -27278.192865   5282.531105      0.001460                    
EOF
